[{"OBJECT_NAME":"STARLINK-31571","OBJECT_ID":"2024-060Q","EPOCH":"2026-03-09T13:53:05.051616","MEAN_MOTION":15.27572637,"ECCENTRICITY":7.23e-5,"INCLINATION":42.9986,"RA_OF_ASC_NODE":260.6673,"ARG_OF_PERICENTER":274.3865,"MEAN_ANOMALY":85.6904,"EPHEMERIS_TYPE":0,"CLASSIFICATION_TYPE":"U","NORAD_CAT_ID":59362,"ELEMENT_SET_NO":999,"REV_AT_EPOCH":11004,"BSTAR":1.3427e-5,"MEAN_MOTION_DOT":1.08e-6,"MEAN_MOTION_DDOT":0},{"OBJECT_NAME":"OBJECT N","OBJECT_ID":"2019-093N","EPOCH":"2026-03-09T21:41:56.087232","MEAN_MOTION":15.29897693,"ECCENTRICITY":0.0006278,"INCLINATION":98.0505,"RA_OF_ASC_NODE":226.9456,"ARG_OF_PERICENTER":33.3806,"MEAN_ANOMALY":326.7828,"EPHEMERIS_TYPE":0,"CLASSIFICATION_TYPE":"U","NORAD_CAT_ID":44891,"ELEMENT_SET_NO":999,"REV_AT_EPOCH":33957,"BSTAR":0.0010567776,"MEAN_MOTION_DOT":0.00030617,"MEAN_MOTION_DDOT":0}]
